ONEWEB-0545             
1 54647U 22166F   26204.14587596 -.00000389  00000+0 -97377-3 0  9999
2 54647  87.9227 236.8251 0001573  91.8028 268.3286 13.21834035176250
ONEWEB-0580             
1 54648U 22166G   26204.12065982  .00000897  00000+0  21415-2 0  9999
2 54648  87.9225 236.8290 0001638  90.3007 269.8315 13.21819142176290
ONEWEB-0582             
1 54649U 22166H   26204.16270541 -.00000073  00000+0 -20909-3 0  9999
2 54649  87.9232 236.8137 0001555  95.2892 264.8419 13.21823802176279
ONEWEB-0583             
1 54650U 22166J   26204.32588886  .00000006  00000+0 -17699-4 0  9991
2 54650  87.9230 236.8045 0001902  95.1813 264.9538 13.21825630176303
ONEWEB-0584             
1 54651U 22166K   26204.11897930  .00000109  00000+0  23284-3 0  9991
2 54651  87.9225 236.8302 0002007  93.2054 266.9310 13.21824927176260
ONEWEB-0585             
1 54652U 22166L   26204.14252514 -.00000032  00000+0 -10900-3 0  9996
2 54652  87.9230 236.8136 0002230  95.6697 264.4691 13.21824137176278
ONEWEB-0586             
1 54653U 22166M   26204.15598598  .00000008  00000+0 -13269-4 0  9997
2 54653  87.9224 236.8357 0001887 100.5951 259.5396 13.21824533176270
ONEWEB-0587             
1 54654U 22166N   26204.31747980  .00000024  00000+0  27591-4 0  9997
2 54654  87.9239 236.7812 0002422  94.7147 265.4264 13.21826287176457
ONEWEB-0589             
1 54655U 22166P   26204.15262858  .00000019  00000+0  15562-4 0  9995
2 54655  87.9227 236.8217 0001190  87.7709 272.3561 13.21825173176294
ONEWEB-0590             
1 54656U 22166Q   26204.10200744  .00000022  00000+0  22141-4 0  9992
2 54656  87.9236 236.8254 0002118  82.6223 277.5152 13.21826598176275
ONEWEB-0591             
1 54657U 22166R   26204.11392173  .00000130  00000+0  28228-3 0  9993
2 54657  87.9226 236.8346 0002012  93.0326 267.1038 13.21824896176301
ONEWEB-0592             
1 54658U 22166S   26204.11729833  .00000077  00000+0  15564-3 0  9990
2 54658  87.9233 236.8152 0002074  95.6415 264.4956 13.21824825176187
ONEWEB-0593             
1 54659U 22166T   26204.13916171  .00000034  00000+0  51205-4 0  9992
2 54659  87.9227 236.8200 0001925  98.3502 261.7850 13.21826400176292
ONEWEB-0594             
1 54660U 22166U   26204.08365609  .00000036  00000+0  55209-4 0  9992
2 54660  87.9227 236.8470 0002194  97.4667 262.6716 13.21824076176304
ONEWEB-0595             
1 54661U 22166V   26204.13580652  .00000062  00000+0  11783-3 0  9993
2 54661  87.9236 236.8203 0002281  92.8721 267.2674 13.21826037176286
ONEWEB-0596             
1 54662U 22166W   26204.11056817  .00000042  00000+0  70791-4 0  9996
2 54662  87.9228 236.8343 0002140  94.7046 265.4332 13.21824384176282
